[{"OBJECT_NAME":"STARLINK-4342","OBJECT_ID":"2022-077AD","EPOCH":"2026-03-09T22:16:51.769344","MEAN_MOTION":15.05631046,"ECCENTRICITY":7.864e-5,"INCLINATION":97.6021,"RA_OF_ASC_NODE":251.546,"ARG_OF_PERICENTER":86.6122,"MEAN_ANOMALY":273.5195,"EPHEMERIS_TYPE":0,"CLASSIFICATION_TYPE":"U","NORAD_CAT_ID":53070,"ELEMENT_SET_NO":999,"REV_AT_EPOCH":20102,"BSTAR":0.0001974698,"MEAN_MOTION_DOT":2.788e-5,"MEAN_MOTION_DDOT":0},{"OBJECT_NAME":"CZ-2D DEB","OBJECT_ID":"2017-060B","EPOCH":"2026-03-09T14:15:36.855648","MEAN_MOTION":14.99543568,"ECCENTRICITY":0.002893,"INCLINATION":97.5408,"RA_OF_ASC_NODE":90.0945,"ARG_OF_PERICENTER":284.1616,"MEAN_ANOMALY":75.6394,"EPHEMERIS_TYPE":0,"CLASSIFICATION_TYPE":"U","NORAD_CAT_ID":44609,"ELEMENT_SET_NO":999,"REV_AT_EPOCH":45025,"BSTAR":0.00057261,"MEAN_MOTION_DOT":7.042e-5,"MEAN_MOTION_DDOT":0}]
